STARLINK-31277          
1 59651U 24082W   26068.51271539 -.00002532  00000+0 -82603-4 0  9993
2 59651  43.0003 140.9135 0000619 200.5160 159.5667 15.27558795104986
PELICAN-6               
1 66703U 25276AP  26068.70709364  .00077979  00000+0  29726-2 0  9998
2 66703  97.4276 144.2072 0003569 157.8575 202.2819 15.26377980 15334
